#cP2023  1  1  0  0  0.00000000      96 ORBIT IGS20 HLM  IGS
## 2243      0.00000000   900.00000000 59945 0.0000000000000
+   31   G01G02G03G04G05G06G07G08G09G10G11G12G13G14G15G16G17
+        G18G19G20G21G22G23G24G25G26G27G29G30G31G32  0  0  0
+          0  0  0  0  0  0  0  0  0  0  0  0  0  0  0  0  0
+          0  0  0  0  0  0  0  0  0  0  0  0  0  0  0  0  0
+          0  0  0  0  0  0  0  0  0  0  0  0  0  0  0  0  0
++         2  2  3  2  2  2  2  2  2  3  2  2  2  2  2  2  2
++         2  2  2  2  2  3  2  2  2  2  2  2  1  2  0  0  0
++         0  0  0  0  0  0  0  0  0  0  0  0  0  0  0  0  0
++         0  0  0  0  0  0  0  0  0  0  0  0  0  0  0  0  0
++         0  0  0  0  0  0  0  0  0  0  0  0  0  0  0  0  0
%c G  cc GPS ccc cccc cccc cccc cccc ccccc ccccc ccccc ccccc
%c cc cc ccc ccc cccc cccc cccc cccc ccccc ccccc ccccc ccccc
%f  1.2500000  1.025000000  0.00000000000  0.000000000000000
%f  0.0000000  0.000000000  0.00000000000  0.000000000000000
%i    0    0    0    0      0      0      0      0         0
%i    0    0    0    0      0      0      0      0         0
/* FINAL ORBIT COMBINATION FROM WEIGHTED AVERAGE OF:        
/* cod esa gfz grg jpl mit ngs sio                          
/* REFERENCED TO IGS TIME (IGST) AND TO WEIGHTED MEAN POLE: 
/* PCV:IGS20_2233 OL/AL:FES2014b NONE     Y  ORB:CMB CLK:CMB
*  2023  1  1 21  0  0.00000000
PG01   9117.844155 -19255.816351 -15942.717499    229.839656  7  6  3  89       
PG02  -4903.156612  20077.951398  17435.889161   -629.790061  7  6  7  45       
PG03   -200.966446 -15899.636981 -21416.249196   -374.196680  8  8  9  98       
PG04    939.112495 -26173.960690  -4047.702364    -57.163167  6  8  3  96       
PG05 -15013.167167   8927.170319  19871.598864   -110.357503  5  7  4  50       
PG06 -21051.869246   2099.719844 -16039.761953    551.312267  4  6  2  60       
PG07  -6163.688689 -14652.172462  21655.567915    265.557507  7  7  5  91       
PG08   7520.682673 -20680.390803  14543.772464   -101.533395  5  5  6  77       
PG09  -7911.656024 -24403.410125   6706.792394   -243.703360  5  5  4  96       
PG10  24089.454001  11542.848027   1252.558306    -18.625257  9 10  7  68       
PG11 -23510.921942  11323.775247  -4834.010692    -69.245779  5  6  4  63       
PG12  -2244.638743  15677.705575 -21611.641487   -323.013098  6  2  5  75       
PG13 -12911.282835  14105.816435  18174.281159    452.141423  7  5  4  79       
PG14 -22724.155813 -13516.829680   3149.260532    -57.610629  8  9  4  78       
PG15  -5057.001132  21803.346912  13637.446918      0.967591  8  8  6  57       
PG16  18815.943795  -3951.666900  18233.644077   -524.978421  2  4  7  32       
PG17 -12366.999490 -15422.660121 -17255.500170    690.350419  5  6  7  59       
PG18   8214.741084  12497.666756  21951.228268    -82.194695  4  5  6  55       
PG19 -14880.755702  -3589.101397 -21957.842844    258.434441  3  6  5  79       
PG20 -23515.934239   2722.256031  11845.751616    459.760870  5  6  1  69       
PG21  15346.410560 -19762.872440  -7005.835590    153.111017  8  4  3  89       
PG22  14982.107867   -433.288615 -21500.907558    397.016240  5  5  5  78       
PG23  17912.652909  15905.483462  11623.693759      1.329884  5  9  8  84       
PG24 -11089.041417  21063.651351 -11677.059985    -11.105464  2  3  5  25       
PG25   8893.910074  17765.130754 -18064.937585    407.487347  5  3  5  66       
PG26  25210.268317   2767.535099   8341.177026    239.580125  3  4  4  43       
PG27  13026.657960 -10128.576283  20491.213967    137.789380  5  3  6  83       
PG29   3952.409413  25791.071544   4689.643958   -577.855504  8  6  6  30       
PG30 -17107.381484  -5651.732649  19682.125658   -534.255388  5  6  5  92       
PG31  22341.007018  -2935.490835 -14578.955377   -205.065697  5  4     44       
PG32  14547.252971  11981.152290 -18638.315488   -349.927737  5  5  6  71       
*  2023  1  1 21 15  0.00000000
PG01  10526.389058 -20141.920910 -13760.494641    229.835218  7  5  3  66       
PG02  -6296.573072  21179.766531  15527.445568   -629.788060  7  6  7  32       
PG03   2080.745684 -15010.335879 -21944.762916   -374.195753  8  8  8  88       
PG04   1255.122602 -25579.629012  -6821.405494    -57.156480  6  7  3  99       
PG05 -17074.828481   8077.782145  18547.860659   -110.358877  5  7  4  71       
PG06 -19576.185090    826.656694 -17900.797430    551.318363  4  6  2  89       
PG07  -4247.993559 -16043.660117  21067.708684    265.552258  7  7  5  79       
PG08   8013.320659 -18936.609137  16547.199634   -101.535620  5  5  6  76       
PG09  -7746.694917 -25057.993376   3946.957887   -243.697628  5  4  4  99       
PG10  23757.257445  11606.053320   4100.380915    -18.626069  9  9  7  82       
PG11 -23063.958526  10720.662458  -7580.150166    -69.253220  6  6  5  67       
PG12  -4442.006905  14631.897467 -21997.432077   -323.017357  6  2  5  98       
PG13 -13044.226886  11907.386328  19600.290653    452.147493  7  5  3  59       
PG14 -22142.448489 -13552.789633   5914.281799    -57.604214  8  9  5  91       
PG15  -5796.916689  20178.978475  15655.559678      0.970744  9  8  6  57       
PG16  20559.752542  -2917.125442  16533.123286   -524.977776  3  4  7  56       
PG17 -12360.964093 -17369.460049 -15344.938688    690.352903  4  6  7  68       
PG18   6205.142252  13975.653521  21706.248730    -82.208156  4  5  6  24       
PG19 -14931.204570  -6013.271767 -21403.400769    258.439010  3  7  5  61       
PG20 -24646.993282   2190.200609   9376.557491    459.759190  5  6  2  76       
PG21  16092.232554 -20024.840638  -4202.791331    153.111047  7  3  3  65       
PG22  15115.028070   2104.783141 -21327.588700    397.023528  6  5  5  69       
PG23  16487.024231  15559.303636  13954.162271      1.330680  5  9  9  76       
PG24 -12157.839343  21629.098721  -9213.701637    -11.120811  3  3  5  50       
PG25   6909.252822  17112.367157 -19504.567671    407.490393  5  2  5  79       
PG26  25890.306098   3295.063502   5711.072565    239.580787  4  4  3  56       
PG27  13453.590719  -7722.355547  21276.848952    137.780665  5  3  6  69       
PG29   3767.745289  26181.427959   1826.443607   -577.857620  8  5  6  52       
PG30 -15344.265978  -7117.358041  20618.556448   -534.254648  6  6  5 100       
PG31  21041.683524  -1767.841838 -16546.897862   -205.066709  5  4     28       
PG32  14711.572302  14042.566387 -17031.782873   -349.939190  5  6  6  70       
*  2023  1  1 21 30  0.00000000
PG01  11688.478975 -20936.865064 -11341.693095    229.830752  6  5  3  60       
PG02  -7474.723059  22194.514491  13364.794982   -629.786007  7  6  7  45       
PG03   4445.360821 -14235.527052 -22100.255978   -374.194835  8  7  7  84       
PG04   1651.735013 -24698.540595  -9476.949613    -57.149818  6  7  3  92       
PG05 -19014.193155   7385.548754  16901.789836   -110.360050  5  7  4  75       
PG06 -18027.766105   -655.872508 -19453.071250    551.324427  4  6  1  78       
PG07  -2465.300503 -17478.740535  20127.737561    265.547004  7  6  5  76       
PG08   8640.628022 -17015.406261  18260.468629   -101.538155  4  5  6  77       
PG09  -7547.209821 -25410.721104   1118.899626   -243.691785  5  4  4  89       
PG10  23129.676561  11586.636183   6879.182677    -18.627391  9  9  6  80       
PG11 -22411.010026   9906.204524 -10195.520476    -69.260640  6  6  5  79       
PG12  -6714.076455  13697.135027 -22014.358843   -323.021440  6  3  5 100       
PG13 -13301.710644   9576.561647  20682.242780    452.153558  7  5  3  59       
PG14 -21276.824019 -13510.352372   8578.257235    -57.597867  8  8  5  85       
PG15  -6682.210945  18385.625557  17392.677414      0.973602  9  8  5  54       
PG16  22161.157878  -2064.602192  14547.524344   -524.976920  4  4  7  66       
PG17 -12428.138040 -19077.604354 -13161.370560    690.355540  4  6  8  94       
PG18   4314.482359  15529.094817  21087.417625    -82.221664  5  5  5  56       
PG19 -15107.675616  -8347.347152 -20489.670655    258.443463  2  7  6  69       
PG20 -25517.770291   1760.976139   6744.176525    459.756924  6  7  2  74       
PG21  16591.406304 -20088.257845  -1322.868567    153.111286  7  3  3  42       
PG22  15372.552188   4588.605826 -20773.089815    397.030669  6  4  6  83       
PG23  14804.977877  15218.011970  16046.095866      1.331411  6  9  9  67       
PG24 -13003.240040  22036.769786  -6590.136538    -11.136062  3  4  5  40       
PG25   4757.256580  16519.742461 -20619.340690    407.493467  5  2  4  75       
PG26  26305.231644   3709.021389   2984.372046    239.581458  4  4  3  57       
PG27  14019.350961  -5278.042917  21686.783953    137.771920  5  4  6  70       
PG29   3564.601575  26256.375365  -1068.360246   -577.859957  8  5  7  35       
PG30 -13587.937036  -8723.770507  21204.503554   -534.253952  6  7  5  99       
PG31  19647.584204   -401.226198 -18238.460662   -205.067745  5  4     32       
PG32  14942.037525  15895.622896 -15131.060010   -349.950661  6  5  6  85       
EOF
